UNKNOWN                 
1 82597U          26086.67111465  .00001861  00000+0  63213-3 0  9997
2 82597  66.7692 231.5828 0097388 234.3363 124.8644 14.36197471644047
UNKNOWN                 
1 82617U          26086.57073390  .00000711  00000+0  19095-3 0  9995
2 82617  74.0276  46.8412 0039058 322.6192  37.2251 14.49569896652012
UNKNOWN                 
1 82627U          26085.68438790  .00000440  00000+0  11211-2 0  9996
2 82627  82.4788 174.5099 0018428 191.4493 321.9106 13.16464723592503
UNKNOWN                 
1 82642U          26086.50338404  .00002010  00000+0  11182-2 0  9998
2 82642  98.9725   1.3653 0134874 304.6528  54.1987 14.07708636630877
UNKNOWN                 
1 82683U          26084.61672622  .00001201  00000+0  46216-3 0  9994
2 82683  98.1567 150.8000 0211229  94.7547 267.7787 14.20444327476879
UNKNOWN                 
1 82693U          26084.69236372  .00002379  00000+0  27452-2 0  9998
2 82693 100.5285  62.7057 0041529 123.6290 236.8825 13.70110135567859
UNKNOWN                 
1 82698U          26080.99311201  .00000634  00000+0  41623-3 0  9996
2 82698  61.6077 244.5581 0689281 326.6082  29.3177 13.29896686551572
UNKNOWN                 
1 82708U          26079.30619149  .00000656  00000+0  26577-2 0  9997
2 82708 102.1625 296.9119 0062446  84.3928 276.4281 12.90760488536107
UNKNOWN                 
1 82729U          26082.91857344 -.00000174  00000+0 -42226-3 0  9999
2 82729  67.9721 330.9131 0836249 301.8070  50.4104 12.17870501547522
UNKNOWN                 
1 82739U          26085.90371688  .00000503  00000+0  44704-3 0  9991
2 82739  99.0963 243.7275 0170112  14.7942 138.9190 13.82993595620504
UNKNOWN                 
1 82741U          26086.48709568  .00001218  00000+0  13622-2 0  9998
2 82741 102.8422 160.6756 0194713  33.0237 328.2882 13.66533589611388
UNKNOWN                 
1 82783U          26084.59211162  .00000182  00000+0  50946-3 0  9992
2 82783  90.3459  41.4569 0019213 189.3652 170.7120 13.09111576517813
